<?xml version="1.0" encoding="UTF-8"?>
<kml xmlns="http://www.opengis.net/kml/2.2">
<Document>
  <name>Kat &amp; Xave — Wimbledon 2026 Trip</name>
  <description>Melbourne · London · Paris · July 2026. Import into Google My Maps — each folder below becomes its own toggleable layer.</description>

  <Style id="hotels"><IconStyle><color>ffd1a34f</color><Icon><href>http://maps.google.com/mapfiles/kml/pushpin/wht-pushpin.png</href></Icon></IconStyle></Style>
  <Style id="dining"><IconStyle><color>ff6b55e0</color><Icon><href>http://maps.google.com/mapfiles/kml/pushpin/wht-pushpin.png</href></Icon></IconStyle></Style>
  <Style id="events"><IconStyle><color>ff3ea3e0</color><Icon><href>http://maps.google.com/mapfiles/kml/pushpin/wht-pushpin.png</href></Icon></IconStyle></Style>
  <Style id="sights"><IconStyle><color>ffd67fb0</color><Icon><href>http://maps.google.com/mapfiles/kml/pushpin/wht-pushpin.png</href></Icon></IconStyle></Style>
  <Style id="transport"><IconStyle><color>ffa6938a</color><Icon><href>http://maps.google.com/mapfiles/kml/pushpin/wht-pushpin.png</href></Icon></IconStyle></Style>
  <Style id="flightLine"><LineStyle><color>993ea3e0</color><width>3</width></LineStyle></Style>
  <Style id="groundLine"><LineStyle><color>cc6b9b5b</color><width>3</width></LineStyle></Style>

  <Folder>
    <name>Hotels</name>
    <Placemark><name>Sanderson London</name><description>6–9 Jul · 3 nights · 50 Berners St, Fitzrovia · https://morgansoriginals.com/sanderson/</description><styleUrl>#hotels</styleUrl><Point><coordinates>-0.1366,51.5172,0</coordinates></Point></Placemark>
    <Placemark><name>Sofitel Paris Arc de Triomphe</name><description>11–13 Jul · 2 nights · 8e · https://www.sofitel-paris-arcdetriomphe.com/en/</description><styleUrl>#hotels</styleUrl><Point><coordinates>2.3009,48.8746,0</coordinates></Point></Placemark>
    <Placemark><name>The Savoy</name><description>13 Jul · 1 night · Strand · https://www.thesavoylondon.com/</description><styleUrl>#hotels</styleUrl><Point><coordinates>-0.1207,51.5101,0</coordinates></Point></Placemark>
  </Folder>

  <Folder>
    <name>Dining (confirmed)</name>
    <Placemark><name>Courtside Restaurant</name><description>7 Jul · Lunch 11:30 · Centre Court Debenture · https://www.wimbledon.com/en_GB/tickets/debentures/courtside_restaurant</description><styleUrl>#dining</styleUrl><Point><coordinates>-0.2128,51.4342,0</coordinates></Point></Placemark>
    <Placemark><name>St. Barts</name><description>9 Jul · Dinner with Lucy &amp; Howard · Smithfield, Farringdon · https://restaurant-stbarts.co.uk/</description><styleUrl>#dining</styleUrl><Point><coordinates>-0.1000,51.5188,0</coordinates></Point></Placemark>
    <Placemark><name>Faubourg Daimant</name><description>11 Jul · Dinner 19:00 · 10e, Paris · https://www.daimant.co/faubourg-daimant.html</description><styleUrl>#dining</styleUrl><Point><coordinates>2.3472,48.8705,0</coordinates></Point></Placemark>
    <Placemark><name>Baillotte</name><description>12 Jul · Lunch 12:30 · Saint-Germain-des-Prés · https://www.restaurantbaillotte.fr/en/</description><styleUrl>#dining</styleUrl><Point><coordinates>2.3303,48.8527,0</coordinates></Point></Placemark>
  </Folder>

  <Folder>
    <name>Tennis, Shows &amp; Events</name>
    <Placemark><name>Wimbledon · Centre Court</name><description>7 Jul · Quarterfinal · VIP Debenture · https://www.wimbledon.com/</description><styleUrl>#events</styleUrl><Point><coordinates>-0.2141,51.4337,0</coordinates></Point></Placemark>
    <Placemark><name>The Phantom of the Opera</name><description>13 Jul · Evening · His Majesty's Theatre, Haymarket · https://uk.thephantomoftheopera.com/</description><styleUrl>#events</styleUrl><Point><coordinates>-0.1318,51.5092,0</coordinates></Point></Placemark>
  </Folder>

  <Folder>
    <name>Museums &amp; Sights</name>
    <Placemark><name>Victoria and Albert Museum</name><description>9 Jul · Near Lucy &amp; Howard's · South Kensington · https://www.vam.ac.uk/</description><styleUrl>#sights</styleUrl><Point><coordinates>-0.1722,51.4966,0</coordinates></Point></Placemark>
    <Placemark><name>The Wallace Collection</name><description>8 Jul · Morning · Manchester Square · https://www.wallacecollection.org/</description><styleUrl>#sights</styleUrl><Point><coordinates>-0.1532,51.5174,0</coordinates></Point></Placemark>
    <Placemark><name>Royal Academy Summer Exhibition</name><description>8 Jul · Afternoon · Burlington House · https://www.royalacademy.org.uk/</description><styleUrl>#sights</styleUrl><Point><coordinates>-0.1396,51.5095,0</coordinates></Point></Placemark>
    <Placemark><name>Hampstead Heath</name><description>10 Jul · Walk (lunch TBC) · Kenwood House · https://www.cityoflondon.gov.uk/things-to-do/green-spaces/hampstead-heath</description><styleUrl>#sights</styleUrl><Point><coordinates>-0.1620,51.5608,0</coordinates></Point></Placemark>
    <Placemark><name>Musée d'Orsay</name><description>12 Jul · Afternoon · Left Bank · https://www.musee-orsay.fr/en</description><styleUrl>#sights</styleUrl><Point><coordinates>2.3266,48.8600,0</coordinates></Point></Placemark>
  </Folder>

  <Folder>
    <name>Transport</name>
    <Placemark><name>Home · Mount Macedon</name><description>5 Jul · 12:00 car pickup (Gisborne Cabs)</description><styleUrl>#transport</styleUrl><Point><coordinates>144.5808,-37.4007,0</coordinates></Point></Placemark>
    <Placemark><name>Melbourne Airport (MEL) · T2</name><description>5 Jul · QF37 departs 15:55</description><styleUrl>#transport</styleUrl><Point><coordinates>144.8410,-37.6690,0</coordinates></Point></Placemark>
    <Placemark><name>Singapore Changi (SIN)</name><description>Transit · both directions</description><styleUrl>#transport</styleUrl><Point><coordinates>103.9894,1.3592,0</coordinates></Point></Placemark>
    <Placemark><name>London Heathrow (LHR)</name><description>Arrive 6 Jul · Depart 14 Jul</description><styleUrl>#transport</styleUrl><Point><coordinates>-0.4543,51.4700,0</coordinates></Point></Placemark>
    <Placemark><name>London Paddington</name><description>Heathrow Express terminus</description><styleUrl>#transport</styleUrl><Point><coordinates>-0.1755,51.5154,0</coordinates></Point></Placemark>
    <Placemark><name>St Pancras International</name><description>Eurostar · London</description><styleUrl>#transport</styleUrl><Point><coordinates>-0.1267,51.5318,0</coordinates></Point></Placemark>
    <Placemark><name>Gare du Nord</name><description>Eurostar · Paris</description><styleUrl>#transport</styleUrl><Point><coordinates>2.3553,48.8809,0</coordinates></Point></Placemark>
  </Folder>

  <Folder>
    <name>Flight routes</name>
    <Placemark><name>MEL · SIN · LHR (both ways)</name><styleUrl>#flightLine</styleUrl><LineString><tessellate>1</tessellate><coordinates>144.8410,-37.6690,0 103.9894,1.3592,0 -0.4543,51.4700,0</coordinates></LineString></Placemark>
  </Folder>

  <Folder>
    <name>Ground &amp; rail routes</name>
    <Placemark><name>Home → Melbourne Airport (car)</name><styleUrl>#groundLine</styleUrl><LineString><tessellate>1</tessellate><coordinates>144.5808,-37.4007,0 144.8410,-37.6690,0</coordinates></LineString></Placemark>
    <Placemark><name>Europe — chronological route</name><styleUrl>#groundLine</styleUrl><LineString><tessellate>1</tessellate><coordinates>-0.4543,51.4700,0 -0.1755,51.5154,0 -0.1366,51.5172,0 -0.2141,51.4337,0 -0.1366,51.5172,0 -0.1532,51.5174,0 -0.1396,51.5095,0 -0.1722,51.4966,0 -0.1000,51.5188,0 -0.1620,51.5608,0 -0.1267,51.5318,0 2.3553,48.8809,0 2.3009,48.8746,0 2.3266,48.8600,0 2.3009,48.8746,0 2.3553,48.8809,0 -0.1267,51.5318,0 -0.1207,51.5101,0 -0.1318,51.5092,0 -0.1755,51.5154,0 -0.4543,51.4700,0</coordinates></LineString></Placemark>
  </Folder>

</Document>
</kml>
